NORAD_CAT_ID,OBJECT_NAME,OBJECT_TYPE,EPOCH,MEAN_MOTION,ECCENTRICITY,INCLINATION,RA_OF_ASC_NODE,ARG_OF_PERICENTER,MEAN_ANOMALY,BSTAR,MEAN_MOTION_DOT,MEAN_MOTION_DDOT,TLE_LINE0,TLE_LINE1,TLE_LINE2,SEMIMAJOR_AXIS,PERIOD,APOGEE,PERIGEE,DECAYED
51786.0,STARLINK-3638,PAYLOAD,2022-04-28 14:00:01,15.22662276,0.0001882,53.2174,204.2576,34.7282,311.5183,-0.033025,-0.00725921,0.0,0 STARLINK-3638,1 51786U 22017U   22118.58334491 -.00725921  00000-0 -33025-1 0  9992,2 51786  53.2174 204.2576 0001882  34.7282 311.5183 15.22662276 10936,6875.951,94.571,499.11,496.522,0.0
51786.0,STARLINK-3638,PAYLOAD,2022-04-29 14:00:01,15.21132448,0.0001882,53.2175,199.6768,35.3534,32.7305,-0.034574,-0.00726296,0.0,0 STARLINK-3638,1 51786U 22017U   22119.58334491 -.00726296  00000-0 -34574-1 0  9999,2 51786  53.2175 199.6768 0001882  35.3534  32.7305 15.21132448  3666,6880.561,94.666,503.72,501.131,0.0
51786.0,STARLINK-3638,PAYLOAD,2022-04-29 22:00:00,15.20621549,0.0001736,53.2175,198.151,39.1515,54.9871,-0.035002,-0.00724431,0.0,0 STARLINK-3638,1 51786U 22017U   22119.91667824 -.00724431  00000-0 -35002-1 0  9991,2 51786  53.2175 198.1510 0001736  39.1515  54.9871 15.20621549 11133,6882.102,94.698,505.161,502.772,0.0
51786.0,STARLINK-3638,PAYLOAD,2022-04-30 14:00:01,15.19600759,0.0002126,53.2175,195.1067,33.1751,111.2317,-0.035994,-0.00723156,0.0,0 STARLINK-3638,1 51786U 22017U   22120.58334491 -.00723156  00000-0 -35994-1 0  9990,2 51786  53.2175 195.1067 0002126  33.1751 111.2317 15.19600759  3633,6885.183000000001,94.762,508.512,505.585,0.0
51786.0,STARLINK-3638,PAYLOAD,2022-04-30 22:00:00,15.19091701,0.0001692,53.2174,193.5842,47.5329,121.0895,-0.03659,-0.00724169,0.0,0 STARLINK-3638,1 51786U 22017U   22120.91667824 -.00724169  00000-0 -36590-1 0  9994,2 51786  53.2174 193.5842 0001692  47.5329 121.0895 15.19091701  3655,6886.721,94.793,509.752,507.421,0.0
51786.0,STARLINK-3638,PAYLOAD,2022-05-01 06:00:00,15.18580766,0.0001967,53.2177,192.0642,38.9287,153.2964,-0.037032,-0.00722277,0.0,0 STARLINK-3638,1 51786U 22017U   22121.25001157 -.00722277  00000-0 -37032-1 0  9993,2 51786  53.2177 192.0642 0001967  38.9287 153.2964 15.18580766 11344,6888.266,94.825,511.486,508.776,0.0
51786.0,STARLINK-3638,PAYLOAD,2022-05-01 14:00:01,15.18069497,0.0001998,53.2175,190.5472,38.88800000000001,176.3264,-0.037482,-0.00720432,0.0,0 STARLINK-3638,1 51786U 22017U   22121.58334491 -.00720432  00000-0 -37482-1 0  9999,2 51786  53.2175 190.5472 0001998  38.8880 176.3264 15.18069497  3633,6889.813,94.857,513.054,510.301,0.0
51786.0,STARLINK-3638,PAYLOAD,2022-05-01 22:00:01,15.17562235,0.0001646,53.2175,189.0282,50.7829,186.8715,-0.038288,-0.00724847,0.0,0 STARLINK-3638,1 51786U 22017U   22121.91668981 -.00724847  00000-0 -38288-1 0  9999,2 51786  53.2175 189.0282 0001646  50.7829 186.8715 15.17562235  3657,6891.348000000001,94.889,514.347,512.078,0.0
51786.0,STARLINK-3638,PAYLOAD,2022-05-02 06:00:00,15.16989705,0.000184,53.2169,187.5127,41.3579,218.028,-0.033923,-0.00630644,0.0,0 STARLINK-3638,1 51786U 22017U   22122.25001157 -.00630644  00000-0 -33923-1 0  9995,2 51786  53.2169 187.5127 0001840  41.3579 218.0280 15.16989705 11495,6893.081999999999,94.925,516.215,513.678,0.0
51786.0,STARLINK-3638,PAYLOAD,2022-05-02 14:00:01,15.1653949,0.000186,53.2175,185.9984,40.6215,239.8849,-0.039148,-0.00719999,0.0,0 STARLINK-3638,1 51786U 22017U   22122.58334491 -.00719999  00000-0 -39148-1 0  9997,2 51786  53.2175 185.9984 0001860  40.6215 239.8849 15.16539490  3648,6894.446,94.953,517.5930000000002,515.028,0.0
51786.0,STARLINK-3638,PAYLOAD,2022-05-02 22:00:01,15.1603206,0.0001611,53.2175,184.4829,46.5691,254.5391,-0.039993,-0.00724559,0.0,0 STARLINK-3638,1 51786U 22017U   22122.91668981 -.00724559  00000-0 -39993-1 0  9994,2 51786  53.2175 184.4829 0001611  46.5691 254.5391 15.16032060 11597,6895.984,94.985,518.96,516.738,0.0
51786.0,STARLINK-3638,PAYLOAD,2022-05-03 14:00:01,15.15009839,0.0001662,53.2175,181.4604,43.1895,297.0938,-0.040927,-0.0072046,0.0,0 STARLINK-3638,1 51786U 22017U   22123.58334491 -.00720460  00000-0 -40927-1 0  9990,2 51786  53.2175 181.4604 0001662  43.1895 297.0938 15.15009839  3643,6899.0859999999975,95.049,522.097,519.804,0.0
51786.0,STARLINK-3638,PAYLOAD,2022-05-03 22:00:00,15.14501251,0.0001665,53.2175,179.9484,39.4555,319.5285,-0.041698,-0.00723293,0.0,0 STARLINK-3638,1 51786U 22017U   22123.91667824 -.00723293  00000-0 -41698-1 0  9999,2 51786  53.2175 179.9484 0001665  39.4555 319.5285 15.14501251  3644,6900.63,95.081,523.644,521.346,0.0
51786.0,STARLINK-3638,PAYLOAD,2022-05-04 06:00:02,15.13882794,0.0001636999999999,53.2174,178.4402,50.739,326.4589,-0.033908,-0.00580308,0.0,0 STARLINK-3638,1 51786U 22017U   22124.25002315 -.00580308  00000-0 -33908-1 0  9998,2 51786  53.2174 178.4402 0001637  50.7390 326.4589 15.13882794 11791,6902.509,95.12,525.504,523.244,0.0
51786.0,STARLINK-3638,PAYLOAD,2022-05-04 14:00:01,15.13479132,0.0001653,53.2175,176.933,42.3203,352.2253,-0.042673,-0.00719381,0.0,0 STARLINK-3638,1 51786U 22017U   22124.58334491 -.00719381  00000-0 -42673-1 0  9991,2 51786  53.2175 176.9330 0001653  42.3203 352.2253 15.13479132 11842,6903.736999999999,95.145,526.743,524.46,0.0
51786.0,STARLINK-3638,PAYLOAD,2022-05-04 22:00:01,15.1297037,0.0001822,53.2175,175.4245,34.8632,16.6079,-0.043445,-0.00721812,0.0,0 STARLINK-3638,1 51786U 22017U   22124.91668981 -.00721812  00000-0 -43445-1 0  9992,2 51786  53.2175 175.4245 0001822  34.8632  16.6079 15.12970370  3646,6905.284000000002,95.177,528.4069999999998,525.891,0.0
51786.0,STARLINK-3638,PAYLOAD,2022-05-05 14:00:01,15.11948142,0.0001926,53.2174,172.4163,34.601,48.6917,-0.044434,-0.00717676,0.0,0 STARLINK-3638,1 51786U 22017U   22125.58334491 -.00717676  00000-0 -44434-1 0  9994,2 51786  53.2174 172.4163 0001926  34.6010  48.6917 15.11948142  3652,6908.396,95.241,531.592,528.931,0.0
51786.0,STARLINK-3638,PAYLOAD,2022-05-05 16:00:00,15.11822961,0.0002002,53.2172,172.04,37.9682,139.1371,-0.044811,-0.00721001,0.0,0 STARLINK-3638,1 51786U 22017U   22125.66667824 -.00721001  00000-0 -44811-1 0  9998,2 51786  53.2172 172.0400 0002002  37.9682 139.1371 15.11822961 12017,6908.778,95.249,532.026,529.26,0.0
51786.0,STARLINK-3638,PAYLOAD,2022-05-05 22:00:00,15.11439876,0.0001746,53.2175,170.9114,40.5977,57.7189,-0.04527,-0.00720629,0.0,0 STARLINK-3638,1 51786U 22017U   22125.91667824 -.00720629  00000-0 -45270-1 0  9991,2 51786  53.2175 170.9114 0001746  40.5977  57.7189 15.11439876  3640,6909.945,95.273,533.016,530.604,0.0
51786.0,STARLINK-3638,PAYLOAD,2022-05-06 14:00:01,15.10417691,0.0001966,53.2173,167.9102,36.1179,90.4068,-0.046297,-0.0071661999999999,0.0,0 STARLINK-3638,1 51786U 22017U   22126.58334491 -.00716620  00000-0 -46297-1 0  9992,2 51786  53.2173 167.9102 0001966  36.1179  90.4068 15.10417691  3651,6913.062,95.338,536.286,533.568,0.0
51786.0,STARLINK-3638,PAYLOAD,2022-05-06 22:00:00,15.09909662,0.0001894,53.2174,166.4088,39.0783,100.6317,-0.047187,-0.00719933,0.0,0 STARLINK-3638,1 51786U 22017U   22126.91667824 -.00719933  00000-0 -47187-1 0  9997,2 51786  53.2174 166.4088 0001894  39.0783 100.6317 15.09909662 12194,6914.613,95.37,537.7869999999998,535.168,0.0
51786.0,STARLINK-3638,PAYLOAD,2022-05-07 14:00:01,15.08837845,0.0001708,53.2173,163.4149,45.5973,118.6472,-7.1844e-05,-1.431e-05,0.0,0 STARLINK-3638,1 51786U 22017U   22127.58334491 -.00001431  00000-0 -71844-4 0  9999,2 51786  53.2173 163.4149 0001708  45.5973 118.6472 15.08837845 12301,6917.887,95.438,540.934,538.57,0.0
51786.0,STARLINK-3638,PAYLOAD,2022-05-07 22:00:00,15.08626746,0.0001811,53.2167,161.9184,42.5293,133.4236,0.019725,0.00326587,0.0,0 STARLINK-3638,1 51786U 22017U   22127.91667824  .00326587  00000-0  19725-1 0  9992,2 51786  53.2167 161.9184 0001811  42.5293 133.4236 15.08626746  3638,6918.531999999997,95.451,541.65,539.144,0.0
51786.0,STARLINK-3638,PAYLOAD,2022-05-08 06:00:00,15.08887111,0.0001976,53.2139,160.4281,44.6439,142.9107,-0.0039172,-0.00062174,0.0,0 STARLINK-3638,1 51786U 22017U   22128.25001157 -.00062174  00000-0 -39172-2 0  9991,2 51786  53.2139 160.4281 0001976  44.6439 142.9107 15.08887111 12408,6917.736,95.435,540.9680000000002,538.234,0.0
51786.0,STARLINK-3638,PAYLOAD,2022-05-08 14:00:01,15.08828377,0.0002062,53.2138,158.9325,38.2837,160.8972,-0.0034976,-0.00055508,0.0,0 STARLINK-3638,1 51786U 22017U   22128.58334491 -.00055508  00000-0 -34976-2 0  9997,2 51786  53.2138 158.9325 0002062  38.2837 160.8972 15.08828377  3639,6917.916,95.438,541.207,538.354,0.0
51786.0,STARLINK-3638,PAYLOAD,2022-05-08 22:00:00,15.0874686,0.0001877,53.2141,157.4343,41.6244,169.1315,0.0043318,0.00069153,0.0,0 STARLINK-3638,1 51786U 22017U   22128.91667824  .00069153  00000-0  43318-2 0  9992,2 51786  53.2141 157.4343 0001877  41.6244 169.1315 15.08746860  3639,6918.165,95.443,541.3290000000002,538.732,0.0
51786.0,STARLINK-3638,PAYLOAD,2022-05-09 06:00:00,15.08805332,0.0001941,53.2144,155.939,40.242,182.0179,0.0023653,0.00037521,0.0,0 STARLINK-3638,1 51786U 22017U   22129.25001157  .00037521  00000-0  23653-2 0  9995,2 51786  53.2144 155.9390 0001941  40.2420 182.0179 15.08805332 12553,6917.986,95.44,541.194,538.509,0.0
51786.0,STARLINK-3638,PAYLOAD,2022-05-09 14:00:01,15.08833333,0.0002025,53.2143,154.4434,34.3628,199.5271,0.0012744,0.00020049,0.0,0 STARLINK-3638,1 51786U 22017U   22129.58335648  .00020049  00000-0  12744-2 0  9992,2 51786  53.2143 154.4434 0002025  34.3628 199.5271 15.08833333  3630,6917.901,95.438,541.1669999999998,538.365,0.0
51786.0,STARLINK-3638,PAYLOAD,2022-05-09 22:00:00,15.08827382,0.000185,53.2146,152.9452,38.5737,206.8649,0.0028181,0.00044832,0.0,0 STARLINK-3638,1 51786U 22017U   22129.91667824  .00044832  00000-0  28181-2 0  9991,2 51786  53.2146 152.9452 0001850  38.5737 206.8649 15.08827382  3625,6917.919,95.438,541.064,538.504,0.0
